OBJECT B                
1 51825U 22019B   25026.81844529  .00025051  00000+0  78742-3 0  9994
2 51825  97.4040 102.7297 0011975 163.8750 196.2875 15.32900096161357
